CCSDS_OMM_VERS = 2.0
CREATION_DATE  = 
ORIGINATOR     = 

OBJECT_NAME    = CZ-2C R/B
OBJECT_ID      = 2022-132E
CENTER_NAME    = EARTH
REF_FRAME      = TEME
TIME_SYSTEM    = UTC
MEAN_ELEMENT_THEORY = SGP/SGP4

EPOCH          = 2026-01-04T22:58:47.379648
MEAN_MOTION    = 15.56500051
ECCENTRICITY   = .0018594
INCLINATION    = 97.2939
RA_OF_ASC_NODE = 6.6256
ARG_OF_PERICENTER = 334.6047
MEAN_ANOMALY   = 25.4292

EPHEMERIS_TYPE = 0
CLASSIFICATION_TYPE = U
NORAD_CAT_ID   = 54039
ELEMENT_SET_NO = 999
REV_AT_EPOCH   = 18044
BSTAR          = .56096E-3
MEAN_MOTION_DOT = .40077E-3
MEAN_MOTION_DDOT = 0

CCSDS_OMM_VERS = 2.0
CREATION_DATE  = 
ORIGINATOR     = 

OBJECT_NAME    = GSLV R/B
OBJECT_ID      = 2022-138AN
CENTER_NAME    = EARTH
REF_FRAME      = TEME
TIME_SYSTEM    = UTC
MEAN_ELEMENT_THEORY = SGP/SGP4

EPOCH          = 2026-01-04T23:55:13.622880
MEAN_MOTION    = 14.96281630
ECCENTRICITY   = .00228093
INCLINATION    = 87.3822
RA_OF_ASC_NODE = 187.6842
ARG_OF_PERICENTER = 28.7275
MEAN_ANOMALY   = 331.5207

EPHEMERIS_TYPE = 0
CLASSIFICATION_TYPE = U
NORAD_CAT_ID   = 54149
ELEMENT_SET_NO = 999
REV_AT_EPOCH   = 17440
BSTAR          = .28215327E-3
MEAN_MOTION_DOT = .323E-4
MEAN_MOTION_DDOT = 0

CCSDS_OMM_VERS = 2.0
CREATION_DATE  = 
ORIGINATOR     = 

OBJECT_NAME    = XRISM
OBJECT_ID      = 2023-137A
CENTER_NAME    = EARTH
REF_FRAME      = TEME
TIME_SYSTEM    = UTC
MEAN_ELEMENT_THEORY = SGP/SGP4

EPOCH          = 2026-01-05T05:27:19.933920
MEAN_MOTION    = 15.10661502
ECCENTRICITY   = .00076977
INCLINATION    = 31.0036
RA_OF_ASC_NODE = 333.8711
ARG_OF_PERICENTER = 124.3263
MEAN_ANOMALY   = 235.8104

EPHEMERIS_TYPE = 0
CLASSIFICATION_TYPE = U
NORAD_CAT_ID   = 57800
ELEMENT_SET_NO = 999
REV_AT_EPOCH   = 12818
BSTAR          = .50274994E-3
MEAN_MOTION_DOT = .8629E-4
MEAN_MOTION_DDOT = 0

CCSDS_OMM_VERS = 2.0
CREATION_DATE  = 
ORIGINATOR     = 

OBJECT_NAME    = ACS3
OBJECT_ID      = 2024-077B
CENTER_NAME    = EARTH
REF_FRAME      = TEME
TIME_SYSTEM    = UTC
MEAN_ELEMENT_THEORY = SGP/SGP4

EPOCH          = 2026-01-05T06:52:55.970688
MEAN_MOTION    = 13.86788658
ECCENTRICITY   = .00678437
INCLINATION    = 97.2503
RA_OF_ASC_NODE = 320.6316
ARG_OF_PERICENTER = 279.4105
MEAN_ANOMALY   = 79.9392

EPHEMERIS_TYPE = 0
CLASSIFICATION_TYPE = U
NORAD_CAT_ID   = 59588
ELEMENT_SET_NO = 999
REV_AT_EPOCH   = 8540
BSTAR          = .17997202E-1
MEAN_MOTION_DOT = .21395E-3
MEAN_MOTION_DDOT = 0

CCSDS_OMM_VERS = 2.0
CREATION_DATE  = 
ORIGINATOR     = 

OBJECT_NAME    = SZ-21 MODULE
OBJECT_ID      = 2025-246C
CENTER_NAME    = EARTH
REF_FRAME      = TEME
TIME_SYSTEM    = UTC
MEAN_ELEMENT_THEORY = SGP/SGP4

EPOCH          = 2026-01-04T23:41:23.705088
MEAN_MOTION    = 15.63935128
ECCENTRICITY   = .00018525
INCLINATION    = 41.4747
RA_OF_ASC_NODE = 234.0941
ARG_OF_PERICENTER = 45.0993
MEAN_ANOMALY   = 314.9997

EPHEMERIS_TYPE = 0
CLASSIFICATION_TYPE = U
NORAD_CAT_ID   = 66515
ELEMENT_SET_NO = 999
REV_AT_EPOCH   = 808
BSTAR          = .32468625E-3
MEAN_MOTION_DOT = .31246E-3
MEAN_MOTION_DDOT = 0

