CZ-2C R/B               
1 54039U 22132E   26004.95749282  .00040077  00000+0  56096-3 0  9995
2 54039  97.2939   6.6256 0018594 334.6047  25.4292 15.56500051180440
GSLV R/B                
1 54149U 22138AN  26004.99668545  .00003230  00000+0  28215-3 0  9991
2 54149  87.3822 187.6842 0022809  28.7275 331.5207 14.96281630174400
XRISM                   
1 57800U 23137A   26005.22731405  .00008629  00000+0  50275-3 0  9999
2 57800  31.0036 333.8711 0007697 124.3263 235.8104 15.10661502128181
ACS3                    
1 59588U 24077B   26005.28675892  .00021395  00000+0  17997-1 0  9998
2 59588  97.2503 320.6316 0067843 279.4105  79.9392 13.86788658 85406
SZ-21 MODULE            
1 66515U 25246C   26004.98707992  .00031246  00000+0  32469-3 0  9997
2 66515  41.4747 234.0941 0001852  45.0993 314.9997 15.63935128  8082
